FLOCK 4BE-3             
1 60561U 24149CX  26193.78016560  .00013677  00000+0  31896-3 0  9995
2 60561  97.3700 277.9497 0004678 175.7143 184.4145 15.42342774106287
FLOCK 4BE-19            
1 60563U 24149CZ  26193.77471148  .00019318  00000+0  40307-3 0  9998
2 60563  97.3735 279.6149 0005675 181.1199 179.0038 15.45570408106371
FLOCK 4G-8              
1 62613U 25009E   26193.78829174  .00006868  00000+0  23753-3 0  9991
2 62613  97.4010 275.6921 0003699 200.8415 159.2675 15.30214699 82836
FLOCK 4G-13             
1 62621U 25009N   26193.77224578  .00073137  00000+0  13597-2 0  9993
2 62621  97.3953 277.5674 0006251 203.9263 156.1698 15.48622703 82950
FLOCK 4G-9              
1 62622U 25009P   26193.80828821  .00005895  00000+0  21533-3 0  9995
2 62622  97.3964 274.5742 0003803 214.9665 145.1325 15.28484549 82771
FLOCK 4G-7              
1 62624U 25009R   26193.77180691  .00008548  00000+0  29864-3 0  9992
2 62624  97.3946 274.9504 0002359 188.2912 171.8290 15.29812427 82819
FLOCK 4G-12             
1 62625U 25009S   26193.76691367  .00007853  00000+0  27513-3 0  9996
2 62625  97.4025 275.4928 0003929 196.8881 163.2229 15.29742500 82810
FLOCK 4G-11             
1 62629U 25009W   26193.75194938  .00007615  00000+0  26601-3 0  9994
2 62629  97.3927 275.0393 0002367 193.2448 166.8731 15.29851522 82824
FLOCK 4G-26             
1 62633U 25009AA  26193.76582564  .00008313  00000+0  28849-3 0  9998
2 62633  97.4022 275.6519 0003404 185.6040 174.5163 15.30037612 82821
FLOCK 4G-28             
1 62634U 25009AB  26193.67457277  .00005586  00000+0  16558-3 0  9994
2 62634  97.4030 278.3258 0001880 167.8729 192.2559 15.35253890 82990
FLOCK 4G-20             
1 62636U 25009AD  26193.74329729  .00131012  00000+0  15966-2 0  9999
2 62636  97.3859 279.0666 0006246 213.2741 146.8124 15.60039427 83093
FLOCK 4G-24             
1 62637U 25009AE  26193.71217775  .00006543  00000+0  22559-3 0  9991
2 62637  97.4031 275.9019 0003435 172.1383 187.9912 15.30336918 82830
FLOCK 4G-3              
1 62639U 25009AG  26193.76996941  .00007694  00000+0  26881-3 0  9997
2 62639  97.4029 275.6694 0002963 176.6085 183.5176 15.29843485 82810
FLOCK 4G-27             
1 62641U 25009AJ  26193.20074251  .00005399  00000+0  18990-3 0  9992
2 62641  97.3939 274.4544 0002239 177.4853 182.6399 15.29769551 82729
FLOCK 4G-29             
1 62642U 25009AK  26193.77487657  .00006218  00000+0  21781-3 0  9996
2 62642  97.4025 275.6345 0003180 173.0908 187.0377 15.29836488 82817
FLOCK 4G-22             
1 62645U 25009AN  26193.72778029  .00006076  00000+0  21356-3 0  9990
2 62645  97.4010 275.6224 0002791 168.2761 191.8545 15.29739871 82829
