{"fetched_at":"2026-07-13T07:47:56.614Z","source":"https://celestrak.org/NORAD/elements/gp.php?GROUP=planet&FORMAT=JSON","constellation":"superdove","records":[{"OBJECT_NAME":"FLOCK 4BE-3","OBJECT_ID":"2024-149CX","EPOCH":"2026-07-12T18:43:26.307840","CLASSIFICATION_TYPE":"U","MEAN_MOTION":15.42342774,"ECCENTRICITY":0.0004678,"INCLINATION":97.37,"RA_OF_ASC_NODE":277.9497,"ARG_OF_PERICENTER":175.7143,"MEAN_ANOMALY":184.4145,"EPHEMERIS_TYPE":0,"NORAD_CAT_ID":60561,"ELEMENT_SET_NO":999,"REV_AT_EPOCH":10628,"BSTAR":0.00031896,"MEAN_MOTION_DOT":0.00013677,"MEAN_MOTION_DDOT":0},{"OBJECT_NAME":"FLOCK 4BE-19","OBJECT_ID":"2024-149CZ","EPOCH":"2026-07-12T18:35:35.071872","CLASSIFICATION_TYPE":"U","MEAN_MOTION":15.45570408,"ECCENTRICITY":0.0005675,"INCLINATION":97.3735,"RA_OF_ASC_NODE":279.6149,"ARG_OF_PERICENTER":181.1199,"MEAN_ANOMALY":179.0038,"EPHEMERIS_TYPE":0,"NORAD_CAT_ID":60563,"ELEMENT_SET_NO":999,"REV_AT_EPOCH":10637,"BSTAR":0.00040307,"MEAN_MOTION_DOT":0.00019318,"MEAN_MOTION_DDOT":0},{"OBJECT_NAME":"FLOCK 4G-8","OBJECT_ID":"2025-009E","EPOCH":"2026-07-12T18:55:08.406336","CLASSIFICATION_TYPE":"U","MEAN_MOTION":15.30214699,"ECCENTRICITY":0.0003699,"INCLINATION":97.401,"RA_OF_ASC_NODE":275.6921,"ARG_OF_PERICENTER":200.8415,"MEAN_ANOMALY":159.2675,"EPHEMERIS_TYPE":0,"NORAD_CAT_ID":62613,"ELEMENT_SET_NO":999,"REV_AT_EPOCH":8283,"BSTAR":0.00023753,"MEAN_MOTION_DOT":0.00006868,"MEAN_MOTION_DDOT":0},{"OBJECT_NAME":"FLOCK 4G-13","OBJECT_ID":"2025-009N","EPOCH":"2026-07-12T18:32:02.035392","CLASSIFICATION_TYPE":"U","MEAN_MOTION":15.48622703,"ECCENTRICITY":0.0006251,"INCLINATION":97.3953,"RA_OF_ASC_NODE":277.5674,"ARG_OF_PERICENTER":203.9263,"MEAN_ANOMALY":156.1698,"EPHEMERIS_TYPE":0,"NORAD_CAT_ID":62621,"ELEMENT_SET_NO":999,"REV_AT_EPOCH":8295,"BSTAR":0.0013597,"MEAN_MOTION_DOT":0.00073137,"MEAN_MOTION_DDOT":0},{"OBJECT_NAME":"FLOCK 4G-9","OBJECT_ID":"2025-009P","EPOCH":"2026-07-12T19:23:56.101344","CLASSIFICATION_TYPE":"U","MEAN_MOTION":15.28484549,"ECCENTRICITY":0.0003803,"INCLINATION":97.3964,"RA_OF_ASC_NODE":274.5742,"ARG_OF_PERICENTER":214.9665,"MEAN_ANOMALY":145.1325,"EPHEMERIS_TYPE":0,"NORAD_CAT_ID":62622,"ELEMENT_SET_NO":999,"REV_AT_EPOCH":8277,"BSTAR":0.00021533,"MEAN_MOTION_DOT":0.00005895,"MEAN_MOTION_DDOT":0},{"OBJECT_NAME":"FLOCK 4G-7","OBJECT_ID":"2025-009R","EPOCH":"2026-07-12T18:31:24.117024","CLASSIFICATION_TYPE":"U","MEAN_MOTION":15.29812427,"ECCENTRICITY":0.0002359,"INCLINATION":97.3946,"RA_OF_ASC_NODE":274.9504,"ARG_OF_PERICENTER":188.2912,"MEAN_ANOMALY":171.829,"EPHEMERIS_TYPE":0,"NORAD_CAT_ID":62624,"ELEMENT_SET_NO":999,"REV_AT_EPOCH":8281,"BSTAR":0.00029864,"MEAN_MOTION_DOT":0.00008548,"MEAN_MOTION_DDOT":0},{"OBJECT_NAME":"FLOCK 4G-12","OBJECT_ID":"2025-009S","EPOCH":"2026-07-12T18:24:21.341088","CLASSIFICATION_TYPE":"U","MEAN_MOTION":15.297425,"ECCENTRICITY":0.0003929,"INCLINATION":97.4025,"RA_OF_ASC_NODE":275.4928,"ARG_OF_PERICENTER":196.8881,"MEAN_ANOMALY":163.2229,"EPHEMERIS_TYPE":0,"NORAD_CAT_ID":62625,"ELEMENT_SET_NO":999,"REV_AT_EPOCH":8281,"BSTAR":0.00027513,"MEAN_MOTION_DOT":0.00007853,"MEAN_MOTION_DDOT":0},{"OBJECT_NAME":"FLOCK 4G-11","OBJECT_ID":"2025-009W","EPOCH":"2026-07-12T18:02:48.426432","CLASSIFICATION_TYPE":"U","MEAN_MOTION":15.29851522,"ECCENTRICITY":0.0002367,"INCLINATION":97.3927,"RA_OF_ASC_NODE":275.0393,"ARG_OF_PERICENTER":193.2448,"MEAN_ANOMALY":166.8731,"EPHEMERIS_TYPE":0,"NORAD_CAT_ID":62629,"ELEMENT_SET_NO":999,"REV_AT_EPOCH":8282,"BSTAR":0.00026601,"MEAN_MOTION_DOT":0.00007615,"MEAN_MOTION_DDOT":0},{"OBJECT_NAME":"FLOCK 4G-26","OBJECT_ID":"2025-009AA","EPOCH":"2026-07-12T18:22:47.335296","CLASSIFICATION_TYPE":"U","MEAN_MOTION":15.30037612,"ECCENTRICITY":0.0003404,"INCLINATION":97.4022,"RA_OF_ASC_NODE":275.6519,"ARG_OF_PERICENTER":185.604,"MEAN_ANOMALY":174.5163,"EPHEMERIS_TYPE":0,"NORAD_CAT_ID":62633,"ELEMENT_SET_NO":999,"REV_AT_EPOCH":8282,"BSTAR":0.00028849,"MEAN_MOTION_DOT":0.00008313,"MEAN_MOTION_DDOT":0},{"OBJECT_NAME":"FLOCK 4G-28","OBJECT_ID":"2025-009AB","EPOCH":"2026-07-12T16:11:23.087328","CLASSIFICATION_TYPE":"U","MEAN_MOTION":15.3525389,"ECCENTRICITY":0.000188,"INCLINATION":97.403,"RA_OF_ASC_NODE":278.3258,"ARG_OF_PERICENTER":167.8729,"MEAN_ANOMALY":192.2559,"EPHEMERIS_TYPE":0,"NORAD_CAT_ID":62634,"ELEMENT_SET_NO":999,"REV_AT_EPOCH":8299,"BSTAR":0.00016558,"MEAN_MOTION_DOT":0.00005586,"MEAN_MOTION_DDOT":0},{"OBJECT_NAME":"FLOCK 4G-20","OBJECT_ID":"2025-009AD","EPOCH":"2026-07-12T17:50:20.885856","CLASSIFICATION_TYPE":"U","MEAN_MOTION":15.60039427,"ECCENTRICITY":0.0006246,"INCLINATION":97.3859,"RA_OF_ASC_NODE":279.0666,"ARG_OF_PERICENTER":213.2741,"MEAN_ANOMALY":146.8124,"EPHEMERIS_TYPE":0,"NORAD_CAT_ID":62636,"ELEMENT_SET_NO":999,"REV_AT_EPOCH":8309,"BSTAR":0.0015966,"MEAN_MOTION_DOT":0.00131012,"MEAN_MOTION_DDOT":0},{"OBJECT_NAME":"FLOCK 4G-24","OBJECT_ID":"2025-009AE","EPOCH":"2026-07-12T17:05:32.157600","CLASSIFICATION_TYPE":"U","MEAN_MOTION":15.30336918,"ECCENTRICITY":0.0003435,"INCLINATION":97.4031,"RA_OF_ASC_NODE":275.9019,"ARG_OF_PERICENTER":172.1383,"MEAN_ANOMALY":187.9912,"EPHEMERIS_TYPE":0,"NORAD_CAT_ID":62637,"ELEMENT_SET_NO":999,"REV_AT_EPOCH":8283,"BSTAR":0.00022559,"MEAN_MOTION_DOT":0.00006543,"MEAN_MOTION_DDOT":0},{"OBJECT_NAME":"FLOCK 4G-3","OBJECT_ID":"2025-009AG","EPOCH":"2026-07-12T18:28:45.357024","CLASSIFICATION_TYPE":"U","MEAN_MOTION":15.29843485,"ECCENTRICITY":0.0002963,"INCLINATION":97.4029,"RA_OF_ASC_NODE":275.6694,"ARG_OF_PERICENTER":176.6085,"MEAN_ANOMALY":183.5176,"EPHEMERIS_TYPE":0,"NORAD_CAT_ID":62639,"ELEMENT_SET_NO":999,"REV_AT_EPOCH":8281,"BSTAR":0.00026881,"MEAN_MOTION_DOT":0.00007694,"MEAN_MOTION_DDOT":0},{"OBJECT_NAME":"FLOCK 4G-27","OBJECT_ID":"2025-009AJ","EPOCH":"2026-07-12T04:49:04.152864","CLASSIFICATION_TYPE":"U","MEAN_MOTION":15.29769551,"ECCENTRICITY":0.00022391,"INCLINATION":97.3939,"RA_OF_ASC_NODE":274.4544,"ARG_OF_PERICENTER":177.4853,"MEAN_ANOMALY":182.6399,"EPHEMERIS_TYPE":0,"NORAD_CAT_ID":62641,"ELEMENT_SET_NO":999,"REV_AT_EPOCH":8272,"BSTAR":0.00018989929,"MEAN_MOTION_DOT":0.00005399,"MEAN_MOTION_DDOT":0},{"OBJECT_NAME":"FLOCK 4G-29","OBJECT_ID":"2025-009AK","EPOCH":"2026-07-12T18:35:49.335648","CLASSIFICATION_TYPE":"U","MEAN_MOTION":15.29836488,"ECCENTRICITY":0.000318,"INCLINATION":97.4025,"RA_OF_ASC_NODE":275.6345,"ARG_OF_PERICENTER":173.0908,"MEAN_ANOMALY":187.0377,"EPHEMERIS_TYPE":0,"NORAD_CAT_ID":62642,"ELEMENT_SET_NO":999,"REV_AT_EPOCH":8281,"BSTAR":0.00021781,"MEAN_MOTION_DOT":0.00006218,"MEAN_MOTION_DDOT":0},{"OBJECT_NAME":"FLOCK 4G-22","OBJECT_ID":"2025-009AN","EPOCH":"2026-07-12T17:28:00.217056","CLASSIFICATION_TYPE":"U","MEAN_MOTION":15.29739871,"ECCENTRICITY":0.0002791,"INCLINATION":97.401,"RA_OF_ASC_NODE":275.6224,"ARG_OF_PERICENTER":168.2761,"MEAN_ANOMALY":191.8545,"EPHEMERIS_TYPE":0,"NORAD_CAT_ID":62645,"ELEMENT_SET_NO":999,"REV_AT_EPOCH":8282,"BSTAR":0.00021356,"MEAN_MOTION_DOT":0.00006076,"MEAN_MOTION_DDOT":0}]}
